{
    "links": {
        "self": "http://www.neowsapp.com/rest/v1/neo/3345301?api_key=iIulBulltgU6a56xZRHN4H3l9WmuAYTsLGpBGhQ2"
    },
    "id": "3345301",
    "neo_reference_id": "3345301",
    "name": "(2006 SQ131)",
    "designation": "2006 SQ131",
    "nasa_jpl_url": "http://ssd.jpl.nasa.gov/sbdb.cgi?sstr=3345301",
    "absolute_magnitude_h": 22.6,
    "estimated_diameter": {
        "kilometers": {
            "estimated_diameter_min": 0.0802703167,
            "estimated_diameter_max": 0.1794898848
        },
        "meters": {
            "estimated_diameter_min": 80.2703167283,
            "estimated_diameter_max": 179.4898847799
        },
        "miles": {
            "estimated_diameter_min": 0.049877647,
            "estimated_diameter_max": 0.1115298092
        },
        "feet": {
            "estimated_diameter_min": 263.3540659348,
            "estimated_diameter_max": 588.8775935812
        }
    },
    "is_potentially_hazardous_asteroid": false,
    "close_approach_data": [
        {
            "close_approach_date": "2006-09-22",
            "close_approach_date_full": "2006-Sep-22 21:15",
            "epoch_date_close_approach": 1158959700000,
            "relative_velocity": {
                "kilometers_per_second": "6.8883636416",
                "kilometers_per_hour": "24798.1091096834",
                "miles_per_hour": "15408.5806298474"
            },
            "miss_distance": {
                "astronomical": "0.2113724757",
                "lunar": "82.2238930473",
                "kilometers": "31620872.141346759",
                "miles": "19648298.8449089142"
            },
            "orbiting_body": "Earth"
        },
        {
            "close_approach_date": "2015-09-15",
            "close_approach_date_full": "2015-Sep-15 18:06",
            "epoch_date_close_approach": 1442340360000,
            "relative_velocity": {
                "kilometers_per_second": "7.5792302489",
                "kilometers_per_hour": "27285.2288961838",
                "miles_per_hour": "16953.9801438538"
            },
            "miss_distance": {
                "astronomical": "0.2453337485",
                "lunar": "95.4348281665",
                "kilometers": "36701406.214715695",
                "miles": "22805196.330818791"
            },
            "orbiting_body": "Earth"
        }
    ],
    "orbital_data": {
        "orbit_id": "10",
        "orbit_determination_date": "2017-04-06 09:08:03",
        "first_observation_date": "2006-09-26",
        "last_observation_date": "2006-10-18",
        "data_arc_in_days": 22,
        "observations_used": 39,
        "orbit_uncertainty": "7",
        "minimum_orbit_intersection": ".196898",
        "jupiter_tisserand_invariant": "4.090",
        "epoch_osculation": "2459000.5",
        "eccentricity": ".3052674547313201",
        "semi_major_axis": "1.721987106261416",
        "inclination": "12.84500976462497",
        "ascending_node_longitude": "184.9459204244494",
        "orbital_period": "825.3597191590625",
        "perihelion_distance": "1.196320485252843",
        "perihelion_argument": "166.4691121018396",
        "aphelion_distance": "2.247653727269991",
        "perihelion_time": "2458939.425877278466",
        "mean_anomaly": "26.63891109461186",
        "mean_motion": ".4361734546081248",
        "equinox": "J2000",
        "orbit_class": {
            "orbit_class_type": "AMO",
            "orbit_class_description": "Near-Earth asteroid orbits similar to that of 1221 Amor",
            "orbit_class_range": "1.017 AU < q (perihelion) < 1.3 AU"
        }
    },
    "is_sentry_object": false
}